H1 CPF 01  gfz 2022 09 26 00  7683 terrasarx 
H2 0702601  6201 31698    2022 09 25 12 59 42 2022 09 30 00 00 42   120 1 1  0 0 0
H9
10 0 59850  85662.000000  0    -847644.738   -691647.384   6790451.959
10 0 59850  85782.000000  0    -904016.447    226688.598   6814520.871
10 0 59850  85902.000000  0    -928574.258   1141778.226   6718869.066
10 0 59850  86022.000000  0    -921090.061   2037097.191   6505165.487
10 0 59850  86142.000000  0    -882179.049   2896462.732   6177141.134
10 0 59850  86262.000000  0    -813281.167   3704326.645   5740528.245
10 0 59850  86382.000000  0    -716623.449   4446059.265   5202965.305
10 0 59851    102.000000  0    -595163.800   5108218.917   4573869.942
10 0 59851    222.000000  0    -452517.664   5678804.161   3864279.003
10 0 59851    342.000000  0    -292867.838   6147478.320   3086658.083
10 0 59851    462.000000  0    -120861.907   6505769.065   2254686.653
10 0 59851    582.000000  0      58503.704   6747233.452   1383011.887
10 0 59851    702.000000  0     240009.879   6867579.829    486985.266
10 0 59851    822.000000  0     418346.423   6864749.221   -417614.694
10 0 59851    942.000000  0     588246.957   6738951.708  -1314869.646
10 0 59851   1062.000000  0     744621.513   6492655.545  -2189010.349
10 0 59851   1182.000000  0     882684.308   6130532.102  -3024700.417
10 0 59851   1302.000000  0     998074.762   5659357.917  -3807309.738
10 0 59851   1422.000000  0    1086968.360   5087876.406  -4523172.117
10 0 59851   1542.000000  0    1146174.605   4426623.030  -5159821.575
10 0 59851   1662.000000  0    1173219.963   3687719.449  -5706202.820
10 0 59851   1782.000000  0    1166413.680   2884642.582  -6152854.435
10 0 59851   1902.000000  0    1124895.808   2031972.105  -6492061.810
10 0 59851   2022.000000  0    1048666.634   1145124.204  -6717978.094
10 0 59851   2142.000000  0     938597.317    240075.127  -6826715.792
10 0 59851   2262.000000  0     796421.840   -666922.435  -6816406.383
10 0 59851   2382.000000  0     624709.749  -1559625.168  -6687227.648
10 0 59851   2502.000000  0     426821.018  -2422081.532  -6441399.737
10 0 59851   2622.000000  0     206843.378  -3238909.607  -6083153.315
10 0 59851   2742.000000  0     -30488.367  -3995569.227  -5618664.968
10 0 59851   2862.000000  0    -279887.924  -4678619.919  -5055960.235
10 0 59851   2982.000000  0    -535627.751  -5275963.002  -4404786.770
10 0 59851   3102.000000  0    -791662.545  -5777063.417  -3676456.473
10 0 59851   3222.000000  0   -1041763.181  -6173145.805  -2883657.660
10 0 59851   3342.000000  0   -1279658.310  -6457360.036  -2040240.234
10 0 59851   3462.000000  0   -1499180.742  -6624913.013  -1160976.129
10 0 59851   3582.000000  0   -1694414.595  -6673161.244   -261298.309
10 0 59851   3702.000000  0   -1859839.797  -6601661.021    642975.511
10 0 59851   3822.000000  0   -1990470.500  -6412174.670   1535928.571
10 0 59851   3942.000000  0   -2081983.421  -6108632.194   2401834.278
10 0 59851   4062.000000  0   -2130832.370  -5697048.734   3225442.368
10 0 59851   4182.000000  0   -2134345.791  -5185399.981   3992254.782
10 0 59851   4302.000000  0   -2090805.172  -4583459.941   4688785.250
10 0 59851   4422.000000  0   -1999503.056  -3902606.040   5302797.978
10 0 59851   4542.000000  0   -1860779.649  -3155594.867   5823522.579
10 0 59851   4662.000000  0   -1676035.646  -2356313.916   6241838.831
10 0 59851   4782.000000  0   -1447722.000  -1519517.984   6550430.106
10 0 59851   4902.000000  0   -1179308.241   -660553.320   6743905.849
10 0 59851   5022.000000  0    -875230.128    204926.266   6818889.243
10 0 59851   5142.000000  0    -540816.675   1061243.682   6774072.232
10 0 59851   5262.000000  0    -182196.634   1892982.071   6610237.601
10 0 59851   5382.000000  0     193813.742   2685262.128   6330246.062
10 0 59851   5502.000000  0     579839.385   3424008.136   5938989.111
10 0 59851   5622.000000  0     968089.219   4096200.078   5443309.032
10 0 59851   5742.000000  0    1350511.442   4690107.317   4851885.096
10 0 59851   5862.000000  0    1718958.571   5195500.012   4175087.174
10 0 59851   5982.000000  0    2065358.891   5603832.290   3424798.738
10 0 59851   6102.000000  0    2381892.086   5908396.596   2614212.252
10 0 59851   6222.000000  0    2661162.196   6104443.870   1757594.500
10 0 59851   6342.000000  0    2896366.352   6189263.226    870030.246
10 0 59851   6462.000000  0    3081451.926   6162220.075    -32850.544
10 0 59851   6582.000000  0    3211260.355   6024753.276   -935155.560
10 0 59851   6702.000000  0    3281653.960   5780330.154  -1821018.293
10 0 59851   6822.000000  0    3289621.805   5434361.554  -2674884.404
10 0 59851   6942.000000  0    3233362.539   4994078.418  -3481791.337
10 0 59851   7062.000000  0    3112340.997   4468372.686  -4227633.640
10 0 59851   7182.000000  0    2927318.534   3867609.278  -4899407.998
10 0 59851   7302.000000  0    2680356.627   3203413.864  -5485435.373
10 0 59851   7422.000000  0    2374795.286   2488441.052  -5975556.153
10 0 59851   7542.000000  0    2015205.835   1736128.588  -6361296.095
10 0 59851   7662.000000  0    1607320.097    960443.285  -6636000.716
10 0 59851   7782.000000  0    1157938.802    175623.958  -6794939.063
10 0 59851   7902.000000  0     674818.200   -604075.587  -6835377.733
10 0 59851   8022.000000  0     166537.258  -1364640.379  -6756621.576
10 0 59851   8142.000000  0    -357650.693  -2092538.935  -6560023.105
10 0 59851   8262.000000  0    -887981.705  -2774957.763  -6248963.323
10 0 59851   8382.000000  0   -1414358.866  -3400024.380  -5828800.038
10 0 59851   8502.000000  0   -1926539.563  -3957012.433  -5306784.570
10 0 59851   8622.000000  0   -2414331.228  -4436528.384  -4691948.935
10 0 59851   8742.000000  0   -2867792.990  -4830676.475  -3994960.967
10 0 59851   8862.000000  0   -3277437.985  -5133196.307  -3227948.363
10 0 59851   8982.000000  0   -3634432.145  -5339570.980  -2404295.161
10 0 59851   9102.000000  0   -3930785.917  -5447103.130  -1538412.339
10 0 59851   9222.000000  0   -4159533.564  -5454955.909   -645485.566
10 0 59851   9342.000000  0   -4314894.709  -5364157.152    258795.181
10 0 59851   9462.000000  0   -4392413.901  -5177565.928   1158518.246
10 0 59851   9582.000000  0   -4389074.504  -4899801.479   2037839.596
10 0 59851   9702.000000  0   -4303382.881  -4537135.612   2881271.161
10 0 59851   9822.000000  0   -4135421.597  -4097352.641   3673961.242
10 0 59851   9942.000000  0   -3886870.554  -3589580.572   4401962.190
10 0 59851  10062.000000  0   -3560994.682  -3024096.743   5052479.331
10 0 59851  10182.000000  0   -3162599.800  -2412114.303   5614094.688
10 0 59851  10302.000000  0   -2697958.468  -1765556.052   6076964.243
10 0 59851  10422.000000  0   -2174707.238  -1096819.036   6432986.783
10 0 59851  10542.000000  0   -1601716.658   -418533.065   6675941.174
10 0 59851  10662.000000  0    -988936.290    256679.408   6801587.041
10 0 59851  10782.000000  0    -347221.619    916436.368   6807733.122
10 0 59851  10902.000000  0     311857.896   1548822.657   6694273.689
10 0 59851  11022.000000  0     976226.991   2142605.071   6463190.473
10 0 59851  11142.000000  0    1633525.259   2687431.791   6118519.396
10 0 59851  11262.000000  0    2271336.082   3174013.246   5666284.738
10 0 59851  11382.000000  0    2877421.653   3594283.631   5114400.842
10 0 59851  11502.000000  0    3439960.751   3941539.212   4472539.134
10 0 59851  11622.000000  0    3947781.401   4210548.486   3751962.717
10 0 59851  11742.000000  0    4390586.856   4397636.574   2965334.754
10 0 59851  11862.000000  0    4759171.548   4500737.691   2126494.099
10 0 59851  11982.000000  0    5045614.469   4519414.904   1250209.355
10 0 59851  12102.000000  0    5243452.593   4454847.144    351913.679
10 0 59851  12222.000000  0    5347825.263   4309782.299   -552576.140
10 0 59851  12342.000000  0    5355585.240   4088457.929  -1447347.198
10 0 59851  12462.000000  0    5265376.099   3796492.284  -2316678.400
10 0 59851  12582.000000  0    5077673.485   3440747.797  -3145323.083
10 0 59851  12702.000000  0    4794789.351   3029172.362  -3918780.032
10 0 59851  12822.000000  0    4420839.749   2570622.328  -4623548.592
10 0 59851  12942.000000  0    3961677.050   2074669.743  -5247361.420
10 0 59851  13062.000000  0    3424789.931   1551401.032  -5779390.700
10 0 59851  13182.000000  0    2819173.498   1011211.887  -6210426.839
10 0 59851  13302.000000  0    2155172.122    464601.938  -6533026.702
10 0 59851  13422.000000  0    1444300.179    -78026.112  -6741629.991
10 0 59851  13542.000000  0     699043.755   -606560.289  -6832646.605
10 0 59851  13662.000000  0     -67357.106  -1111363.845  -6804511.515
10 0 59851  13782.000000  0    -841138.049  -1583445.840  -6657707.158
10 0 59851  13902.000000  0   -1608251.282  -2014616.998  -6394757.029
10 0 59851  14022.000000  0   -2354615.149  -2397629.741  -6020187.054
10 0 59851  14142.000000  0   -3066367.025  -2726298.786  -5540455.523
10 0 59851  14262.000000  0   -3730118.037  -2995602.354  -4963853.825
10 0 59851  14382.000000  0   -4333206.689  -3201762.133  -4300374.690
10 0 59851  14502.000000  0   -4863943.876  -3342298.601  -3561549.085
10 0 59851  14622.000000  0   -5311845.747  -3416061.320  -2760254.597
10 0 59851  14742.000000  0   -5667849.060  -3423233.047  -1910496.178
10 0 59851  14862.000000  0   -5924502.668  -3365306.522  -1027162.683
10 0 59851  14982.000000  0   -6076130.674  -3245034.482   -125763.948
10 0 59851  15102.000000  0   -6118962.492  -3066353.275    777846.783
10 0 59851  15222.000000  0   -6051226.269  -2834282.193   1667760.186
10 0 59851  15342.000000  0   -5873200.363  -2554799.719   2528301.272
10 0 59851  15462.000000  0   -5587223.018  -2234700.674   3344313.266
10 0 59851  15582.000000  0   -5197661.995  -1881438.907   4101432.342
10 0 59851  15702.000000  0   -4710840.682  -1502957.139   4786345.502
99
